NORAD_CAT_ID,OBJECT_NAME,OBJECT_TYPE,EPOCH,MEAN_MOTION,ECCENTRICITY,INCLINATION,RA_OF_ASC_NODE,ARG_OF_PERICENTER,MEAN_ANOMALY,BSTAR,MEAN_MOTION_DOT,MEAN_MOTION_DDOT,TLE_LINE0,TLE_LINE1,TLE_LINE2,SEMIMAJOR_AXIS,PERIOD,APOGEE,PERIGEE,DECAYED
53269.0,STARLINK-4057,PAYLOAD,2024-07-01 21:02:19,15.08817473,0.0001235,53.2167,68.6127,78.1054,282.0076,0.00021605,3.15e-05,0.0,0 STARLINK-4057,1 53269U 22086AD  24183.87661258  .00003150  00000-0  21605-3 0  9990,2 53269  53.2167  68.6127 0001235  78.1054 282.0076 15.08817473108050,6917.949,95.439,540.669,538.96,0.0
53269.0,STARLINK-4057,PAYLOAD,2024-07-01 22:37:42,15.08825619,0.0001136,53.2172,68.3172,76.8214,283.2904,0.00012976,1.777e-05,0.0,0 STARLINK-4057,1 53269U 22086AD  24183.94285180  .00001777  00000-0  12976-3 0  9998,2 53269  53.2172  68.3172 0001136  76.8214 283.2904 15.08825619108241,6917.924,95.438,540.575,539.003,0.0
53269.0,STARLINK-4057,PAYLOAD,2024-07-02 09:45:23,15.0883992,0.0001439,53.2193,66.2335,80.6363,279.4792,0.00024147,3.557e-05,0.0,0 STARLINK-4057,1 53269U 22086AD  24184.40652319  .00003557  00000-0  24147-3 0  9993,2 53269  53.2193  66.2335 0001439  80.6363 279.4792 15.08839920108136,6917.881,95.438,540.741,538.75,0.0
53269.0,STARLINK-4057,PAYLOAD,2024-07-02 22:28:28,15.0884586,0.0001244,53.2178,63.8547,102.5819,257.5313,5.1161e-06,-2.06e-06,0.0,0 STARLINK-4057,1 53269U 22086AD  24184.93644392 -.00000206  00000-0  51161-5 0  9990,2 53269  53.2178  63.8547 0001244 102.5819 257.5313 15.08845860108395,6917.862,95.437,540.588,538.867,0.0
53269.0,STARLINK-4057,PAYLOAD,2024-07-03 20:43:52,15.08839462,0.0001338,53.2181,59.6913,107.9833,252.1305,0.00016605,2.356e-05,0.0,0 STARLINK-4057,1 53269U 22086AD  24185.86380306  .00002356  00000-0  16605-3 0  9994,2 53269  53.2181  59.6913 0001338 107.9833 252.1305 15.08839462108357,6917.882,95.438,540.673,538.821,0.0
53269.0,STARLINK-4057,PAYLOAD,2024-07-03 22:19:15,15.08843897,0.0001153,53.2178,59.3958,97.377,262.7353,7.2194e-05,8.61e-06,0.0,0 STARLINK-4057,1 53269U 22086AD  24185.93004330  .00000861  00000-0  72194-4 0  9997,2 53269  53.2178  59.3958 0001153  97.3770 262.7353 15.08843897108544,6917.868,95.437,540.531,538.936,0.0
53269.0,STARLINK-4057,PAYLOAD,2024-07-04 01:30:01,15.08844925,0.0001218,53.2172,58.8009,96.5172,263.5959,0.00010996,1.463e-05,0.0,0 STARLINK-4057,1 53269U 22086AD  24186.06252276  .00001463  00000-0  10996-3 0  9996,2 53269  53.2172  58.8009 0001218  96.5172 263.5959 15.08844925108564,6917.865,95.437,540.573,538.888,0.0
53269.0,STARLINK-4057,PAYLOAD,2024-07-04 20:34:37,15.08909336,0.0001562,53.2178,55.2306,83.1787,276.9383,-0.0010284,-0.00016649,0.0,0 STARLINK-4057,1 53269U 22086AD  24186.85737279 -.00016649  00000-0 -10284-2 0  9997,2 53269  53.2178  55.2306 0001562  83.1787 276.9383 15.08909336108508,6917.668,95.433,540.614,538.453,0.0
53269.0,STARLINK-4057,PAYLOAD,2024-07-04 22:10:02,15.08844898,0.0001092,53.2172,54.9345,88.1639,271.9478,0.00010846,1.439e-05,0.0,0 STARLINK-4057,1 53269U 22086AD  24186.92364163  .00001439  00000-0  10846-3 0  9997,2 53269  53.2172  54.9345 0001092  88.1639 271.9478 15.08844898108691,6917.865,95.437,540.486,538.975,0.0
53269.0,STARLINK-4057,PAYLOAD,2024-07-05 01:20:48,15.08846446,0.0001146,53.2167,54.3392,75.5865,284.5255,0.00012698,1.734e-05,0.0,0 STARLINK-4057,1 53269U 22086AD  24187.05612132  .00001734  00000-0  12698-3 0  9999,2 53269  53.2167  54.3392 0001146  75.5865 284.5255 15.08846446108539,6917.861,95.437,540.518,538.933,0.0
53269.0,STARLINK-4057,PAYLOAD,2024-07-05 07:42:20,15.08861138,0.0001067,53.2179,53.1525,92.4473,267.6642,0.00026828,3.987e-05,0.0,0 STARLINK-4057,1 53269U 22086AD  24187.32107024  .00003987  00000-0  26828-3 0  9990,2 53269  53.2179  53.1525 0001067  92.4473 267.6642 15.08861138108573,6917.816,95.436,540.419,538.943,0.0
53269.0,STARLINK-4057,PAYLOAD,2024-07-05 20:25:26,15.08831003,0.0001192,53.2169,50.7711,82.1262,277.9865,-0.00011888,-2.179e-05,0.0,0 STARLINK-4057,1 53269U 22086AD  24187.85100646 -.00002179  00000-0 -11888-3 0  9995,2 53269  53.2169  50.7711 0001192  82.1262 277.9865 15.08831003108651,6917.908,95.438,540.598,538.948,0.0
53269.0,STARLINK-4057,PAYLOAD,2024-07-05 22:00:49,15.08836364,0.0001267,53.2177,50.4787,100.2432,259.8703,-5.5268e-05,-1.167e-05,0.0,0 STARLINK-4057,1 53269U 22086AD  24187.91724383 -.00001167  00000-0 -55268-4 0  9999,2 53269  53.2177  50.4787 0001267 100.2432 259.8703 15.08836364108840,6917.892,95.438,540.633,538.88,0.0
53269.0,STARLINK-4057,PAYLOAD,2024-07-06 07:33:08,15.08848128,0.0001286,53.2183,48.6942,100.7328,259.3809,0.00012141,1.645e-05,0.0,0 STARLINK-4057,1 53269U 22086AD  24188.31467705  .00001645  00000-0  12141-3 0  9997,2 53269  53.2183  48.6942 0001286 100.7328 259.3809 15.08848128108729,6917.856,95.437,540.61,538.831,0.0
53269.0,STARLINK-4057,PAYLOAD,2024-07-06 20:16:13,15.08830726,0.0001449,53.2186,46.3139,91.9669,268.1489,-0.00014605,-2.611e-05,0.0,0 STARLINK-4057,1 53269U 22086AD  24188.84460578 -.00002611  00000-0 -14605-3 0  9999,2 53269  53.2186  46.3139 0001449  91.9669 268.1489 15.08830726108801,6917.909,95.438,540.776,538.771,0.0
53269.0,STARLINK-4057,PAYLOAD,2024-07-06 21:51:37,15.0883422,0.0001349,53.2182,46.0174,94.5565,265.5581,-5.371e-05,-1.142e-05,0.0,0 STARLINK-4057,1 53269U 22086AD  24188.91084491 -.00001142  00000-0 -53710-4 0  9992,2 53269  53.2182  46.0174 0001349  94.5565 265.5581 15.08834220108993,6917.898,95.438,540.696,538.83,0.0
53269.0,STARLINK-4057,PAYLOAD,2024-07-07 07:23:55,15.08842201,0.0001253,53.217,44.2325,88.6721,271.4414,0.00080851,0.00012604,0.0,0 STARLINK-4057,1 53269U 22086AD  24189.30828664  .00012604  00000-0  80851-3 0  9992,2 53269  53.2170  44.2325 0001253  88.6721 271.4414 15.08842201108876,6917.874,95.437,540.605,538.872,0.0
53269.0,STARLINK-4057,PAYLOAD,2024-07-07 20:07:01,15.08833291,0.0001531,53.2178,41.8543,87.5022,272.6146,0.00039339,5.977e-05,0.0,0 STARLINK-4057,1 53269U 22086AD  24189.83821160  .00005977  00000-0  39339-3 0  9994,2 53269  53.2178  41.8543 0001531  87.5022 272.6146 15.08833291108953,6917.901,95.438,540.825,538.707,0.0
53269.0,STARLINK-4057,PAYLOAD,2024-07-08 13:36:15,15.08841941,0.0001316,53.2168,38.5852,85.6645,274.4497,0.00025781,3.818e-05,0.0,0 STARLINK-4057,1 53269U 22086AD  24190.56684860  .00003818  00000-0  25781-3 0  9998,2 53269  53.2168  38.5852 0001316  85.6645 274.4497 15.08841941109242,6917.874,95.437,540.65,538.829,0.0
53269.0,STARLINK-4057,PAYLOAD,2024-07-08 21:33:11,15.08842204,0.0001181,53.2171,37.0952,87.216,272.8967,0.0002135,3.112e-05,0.0,0 STARLINK-4057,1 53269U 22086AD  24190.89804964  .00003112  00000-0  21350-3 0  9998,2 53269  53.2171  37.0952 0001181  87.2160 272.8967 15.08842204109293,6917.874,95.437,540.556,538.922,0.0
53269.0,STARLINK-4057,PAYLOAD,2024-07-08 23:08:34,15.08846014,0.0001235,53.2171,36.7983,86.4008,273.7126,0.00027242,4.051e-05,0.0,0 STARLINK-4057,1 53269U 22086AD  24190.96428818  .00004051  00000-0  27242-3 0  9995,2 53269  53.2171  36.7983 0001235  86.4008 273.7126 15.08846014109127,6917.862,95.437,540.581,538.873,0.0
53269.0,STARLINK-4057,PAYLOAD,2024-07-09 13:27:03,15.08848013,0.0002378,53.2168,34.1255,75.8493,284.2763,0.00033685,5.078e-05,0.0,0 STARLINK-4057,1 53269U 22086AD  24191.56045227  .00005078  00000-0  33685-3 0  9999,2 53269  53.2168  34.1255 0002378  75.8493 284.2763 15.08848013109390,6917.856,95.437,541.366,538.076,0.0
53269.0,STARLINK-4057,PAYLOAD,2024-07-09 19:48:35,15.08840467,0.0001504,53.2176,32.9284,125.2973,234.816,0.00022801,3.343e-05,0.0,0 STARLINK-4057,1 53269U 22086AD  24191.82541033  .00003343  00000-0  22801-3 0  9995,2 53269  53.2176  32.9284 0001504 125.2973 234.8160 15.08840467109252,6917.879,95.438,540.784,538.704,0.0
53269.0,STARLINK-4057,PAYLOAD,2024-07-10 13:17:50,15.0884226,0.0001739,53.2159,29.6602,86.864,273.2551,0.0003091,4.635e-05,0.0,0 STARLINK-4057,1 53269U 22086AD  24192.55405425  .00004635  00000-0  30910-3 0  9995,2 53269  53.2159  29.6602 0001739  86.8640 273.2551 15.08842260109549,6917.873,95.437,540.941,538.535,0.0
53269.0,STARLINK-4057,PAYLOAD,2024-07-11 19:30:09,15.08847707,0.0001798,53.2184,24.0108,87.5666,272.5532,0.00030701,4.602e-05,0.0,0 STARLINK-4057,1 53269U 22086AD  24193.81261333  .00004602  00000-0  30701-3 0  9995,2 53269  53.2184  24.0108 0001798  87.5666 272.5532 15.08847707109551,6917.857,95.437,540.966,538.478,0.0
53269.0,STARLINK-4057,PAYLOAD,2024-07-12 12:59:24,15.08841896,0.0001431,53.2189,20.7396,83.8296,276.2859,0.00013987,1.939e-05,0.0,0 STARLINK-4057,1 53269U 22086AD  24194.54125446  .00001939  00000-0  13987-3 0  9997,2 53269  53.2189  20.7396 0001431  83.8296 276.2859 15.08841896109668,6917.875,95.437,540.73,538.75,0.0
53269.0,STARLINK-4057,PAYLOAD,2024-07-12 19:20:57,15.08839671,0.0001284,53.2183,19.5497,82.1761,277.9377,0.00014319,1.992e-05,0.0,0 STARLINK-4057,1 53269U 22086AD  24194.80621538  .00001992  00000-0  14319-3 0  9998,2 53269  53.2183  19.5497 0001284  82.1761 277.9377 15.08839671109880,6917.881,95.438,540.635,538.858,0.0
53269.0,STARLINK-4057,PAYLOAD,2024-07-13 12:50:11,15.08839455,0.0001966,53.2187,16.2782,88.9791,271.1426,7.4959e-05,9.05e-06,0.0,0 STARLINK-4057,1 53269U 22086AD  24195.53485591  .00000905  00000-0  74959-4 0  9996,2 53269  53.2187  16.2782 0001966  88.9791 271.1426 15.08839455109992,6917.882,95.438,541.107,538.387,0.0
53269.0,STARLINK-4057,PAYLOAD,2024-07-13 19:11:44,15.08838049,0.0001319,53.2188,15.0925,97.9114,262.2028,2.2446e-05,6.9e-07,0.0,0 STARLINK-4057,1 53269U 22086AD  24195.79981629  .00000069  00000-0  22446-4 0  9992,2 53269  53.2188  15.0925 0001319  97.9114 262.2028 15.08838049109852,6917.886,95.438,540.664,538.839,0.0
53269.0,STARLINK-4057,PAYLOAD,2024-07-13 22:22:30,15.08841249,0.0001263,53.2185,14.4954,89.9974,270.1163,0.00011757,1.584e-05,0.0,0 STARLINK-4057,1 53269U 22086AD  24195.93229491  .00001584  00000-0  11757-3 0  9995,2 53269  53.2185  14.4954 0001263  89.9974 270.1163 15.08841249110055,6917.877,95.437,540.615,538.868,0.0
